CCSDS_OMM_VERS = 2.0
CREATION_DATE  = 
ORIGINATOR     = 

OBJECT_NAME    = ATLAS CENTAUR R/B
OBJECT_ID      = 1972-065B
CENTER_NAME    = EARTH
REF_FRAME      = TEME
TIME_SYSTEM    = UTC
MEAN_ELEMENT_THEORY = SGP/SGP4

EPOCH          = 2025-12-19T21:22:37.018272
MEAN_MOTION    = 14.77426906
ECCENTRICITY   = .003332
INCLINATION    = 35.0023
RA_OF_ASC_NODE = 53.3083
ARG_OF_PERICENTER = 58.4171
MEAN_ANOMALY   = 301.9776

EPHEMERIS_TYPE = 0
CLASSIFICATION_TYPE = U
NORAD_CAT_ID   = 6155
ELEMENT_SET_NO = 999
REV_AT_EPOCH   = 82945
BSTAR          = .12014E-3
MEAN_MOTION_DOT = .852E-5
MEAN_MOTION_DDOT = 0

CCSDS_OMM_VERS = 2.0
CREATION_DATE  = 
ORIGINATOR     = 

OBJECT_NAME    = SL-8 R/B
OBJECT_ID      = 1975-112B
CENTER_NAME    = EARTH
REF_FRAME      = TEME
TIME_SYSTEM    = UTC
MEAN_ELEMENT_THEORY = SGP/SGP4

EPOCH          = 2025-12-19T05:31:34.997952
MEAN_MOTION    = 14.38149375
ECCENTRICITY   = .0016661
INCLINATION    = 74.0589
RA_OF_ASC_NODE = 166.9193
ARG_OF_PERICENTER = 277.6121
MEAN_ANOMALY   = 82.3141

EPHEMERIS_TYPE = 0
CLASSIFICATION_TYPE = U
NORAD_CAT_ID   = 8459
ELEMENT_SET_NO = 999
REV_AT_EPOCH   = 62030
BSTAR          = .94171E-4
MEAN_MOTION_DOT = .26E-5
MEAN_MOTION_DDOT = 0

CCSDS_OMM_VERS = 2.0
CREATION_DATE  = 
ORIGINATOR     = 

OBJECT_NAME    = SL-3 R/B
OBJECT_ID      = 1977-057B
CENTER_NAME    = EARTH
REF_FRAME      = TEME
TIME_SYSTEM    = UTC
MEAN_ELEMENT_THEORY = SGP/SGP4

EPOCH          = 2025-12-20T03:34:24.478752
MEAN_MOTION    = 15.43111774
ECCENTRICITY   = .000694
INCLINATION    = 97.5682
RA_OF_ASC_NODE = 157.7662
ARG_OF_PERICENTER = 202.3473
MEAN_ANOMALY   = 157.7473

EPHEMERIS_TYPE = 0
CLASSIFICATION_TYPE = U
NORAD_CAT_ID   = 10114
ELEMENT_SET_NO = 999
REV_AT_EPOCH   = 65605
BSTAR          = .21233E-3
MEAN_MOTION_DOT = .9308E-4
MEAN_MOTION_DDOT = 0

CCSDS_OMM_VERS = 2.0
CREATION_DATE  = 
ORIGINATOR     = 

OBJECT_NAME    = SEASAT 1
OBJECT_ID      = 1978-064A
CENTER_NAME    = EARTH
REF_FRAME      = TEME
TIME_SYSTEM    = UTC
MEAN_ELEMENT_THEORY = SGP/SGP4

EPOCH          = 2025-12-19T16:03:33.576768
MEAN_MOTION    = 14.46068428
ECCENTRICITY   = .00014504
INCLINATION    = 108.0128
RA_OF_ASC_NODE = 317.5720
ARG_OF_PERICENTER = 252.5707
MEAN_ANOMALY   = 107.5280

EPHEMERIS_TYPE = 0
CLASSIFICATION_TYPE = U
NORAD_CAT_ID   = 10967
ELEMENT_SET_NO = 999
REV_AT_EPOCH   = 49494
BSTAR          = .92947842E-4
MEAN_MOTION_DOT = .194E-5
MEAN_MOTION_DDOT = 0

CCSDS_OMM_VERS = 2.0
CREATION_DATE  = 
ORIGINATOR     = 

OBJECT_NAME    = SL-14 R/B
OBJECT_ID      = 1979-011B
CENTER_NAME    = EARTH
REF_FRAME      = TEME
TIME_SYSTEM    = UTC
MEAN_ELEMENT_THEORY = SGP/SGP4

EPOCH          = 2025-12-20T00:46:24.949344
MEAN_MOTION    = 14.91777670
ECCENTRICITY   = .0015269
INCLINATION    = 82.5232
RA_OF_ASC_NODE = 172.1277
ARG_OF_PERICENTER = 328.4201
MEAN_ANOMALY   = 31.6101

EPHEMERIS_TYPE = 0
CLASSIFICATION_TYPE = U
NORAD_CAT_ID   = 11267
ELEMENT_SET_NO = 999
REV_AT_EPOCH   = 51690
BSTAR          = .40582E-4
MEAN_MOTION_DOT = .435E-5
MEAN_MOTION_DDOT = 0

CCSDS_OMM_VERS = 2.0
CREATION_DATE  = 
ORIGINATOR     = 

OBJECT_NAME    = SL-8 R/B
OBJECT_ID      = 1979-089B
CENTER_NAME    = EARTH
REF_FRAME      = TEME
TIME_SYSTEM    = UTC
MEAN_ELEMENT_THEORY = SGP/SGP4

EPOCH          = 2025-12-20T02:51:51.355296
MEAN_MOTION    = 14.42288210
ECCENTRICITY   = .0014593
INCLINATION    = 74.0683
RA_OF_ASC_NODE = 238.3213
ARG_OF_PERICENTER = 69.6027
MEAN_ANOMALY   = 290.6695

EPHEMERIS_TYPE = 0
CLASSIFICATION_TYPE = U
NORAD_CAT_ID   = 11574
ELEMENT_SET_NO = 999
REV_AT_EPOCH   = 42463
BSTAR          = .68883E-4
MEAN_MOTION_DOT = .201E-5
MEAN_MOTION_DDOT = 0

CCSDS_OMM_VERS = 2.0
CREATION_DATE  = 
ORIGINATOR     = 

OBJECT_NAME    = SL-14 R/B
OBJECT_ID      = 1980-005B
CENTER_NAME    = EARTH
REF_FRAME      = TEME
TIME_SYSTEM    = UTC
MEAN_ELEMENT_THEORY = SGP/SGP4

EPOCH          = 2025-12-20T01:26:34.823328
MEAN_MOTION    = 14.90799473
ECCENTRICITY   = .0017289
INCLINATION    = 82.5142
RA_OF_ASC_NODE = 22.7564
ARG_OF_PERICENTER = 71.2609
MEAN_ANOMALY   = 289.0485

EPHEMERIS_TYPE = 0
CLASSIFICATION_TYPE = U
NORAD_CAT_ID   = 11672
ELEMENT_SET_NO = 999
REV_AT_EPOCH   = 46462
BSTAR          = .40816E-4
MEAN_MOTION_DOT = .428E-5
MEAN_MOTION_DDOT = 0

CCSDS_OMM_VERS = 2.0
CREATION_DATE  = 
ORIGINATOR     = 

OBJECT_NAME    = SL-8 R/B
OBJECT_ID      = 1981-003B
CENTER_NAME    = EARTH
REF_FRAME      = TEME
TIME_SYSTEM    = UTC
MEAN_ELEMENT_THEORY = SGP/SGP4

EPOCH          = 2025-12-20T02:34:35.943744
MEAN_MOTION    = 15.07237960
ECCENTRICITY   = .0278639
INCLINATION    = 82.9312
RA_OF_ASC_NODE = 3.4231
ARG_OF_PERICENTER = 94.9179
MEAN_ANOMALY   = 268.3920

EPHEMERIS_TYPE = 0
CLASSIFICATION_TYPE = U
NORAD_CAT_ID   = 12139
ELEMENT_SET_NO = 999
REV_AT_EPOCH   = 30267
BSTAR          = .29188E-3
MEAN_MOTION_DOT = .11051E-3
MEAN_MOTION_DDOT = 0

CCSDS_OMM_VERS = 2.0
CREATION_DATE  = 
ORIGINATOR     = 

OBJECT_NAME    = SL-3 R/B
OBJECT_ID      = 1981-046B
CENTER_NAME    = EARTH
REF_FRAME      = TEME
TIME_SYSTEM    = UTC
MEAN_ELEMENT_THEORY = SGP/SGP4

EPOCH          = 2025-12-20T04:02:07.105920
MEAN_MOTION    = 15.39748573
ECCENTRICITY   = .001836
INCLINATION    = 81.2321
RA_OF_ASC_NODE = 25.0510
ARG_OF_PERICENTER = 297.4612
MEAN_ANOMALY   = 62.4762

EPHEMERIS_TYPE = 0
CLASSIFICATION_TYPE = U
NORAD_CAT_ID   = 12465
ELEMENT_SET_NO = 999
REV_AT_EPOCH   = 42618
BSTAR          = .19228E-3
MEAN_MOTION_DOT = .7681E-4
MEAN_MOTION_DDOT = 0

CCSDS_OMM_VERS = 2.0
CREATION_DATE  = 
ORIGINATOR     = 

OBJECT_NAME    = SL-3 R/B
OBJECT_ID      = 1981-103B
CENTER_NAME    = EARTH
REF_FRAME      = TEME
TIME_SYSTEM    = UTC
MEAN_ELEMENT_THEORY = SGP/SGP4

EPOCH          = 2025-12-20T03:55:08.982624
MEAN_MOTION    = 15.20312337
ECCENTRICITY   = .0012264
INCLINATION    = 81.1595
RA_OF_ASC_NODE = 306.6583
ARG_OF_PERICENTER = 185.8879
MEAN_ANOMALY   = 174.2209

EPHEMERIS_TYPE = 0
CLASSIFICATION_TYPE = U
NORAD_CAT_ID   = 12904
ELEMENT_SET_NO = 999
REV_AT_EPOCH   = 96114
BSTAR          = .20917E-3
MEAN_MOTION_DOT = .4578E-4
MEAN_MOTION_DDOT = 0

CCSDS_OMM_VERS = 2.0
CREATION_DATE  = 
ORIGINATOR     = 

OBJECT_NAME    = SL-3 R/B
OBJECT_ID      = 1982-013B
CENTER_NAME    = EARTH
REF_FRAME      = TEME
TIME_SYSTEM    = UTC
MEAN_ELEMENT_THEORY = SGP/SGP4

EPOCH          = 2025-12-20T03:25:14.299104
MEAN_MOTION    = 15.21145622
ECCENTRICITY   = .0024213
INCLINATION    = 81.1752
RA_OF_ASC_NODE = 253.9444
ARG_OF_PERICENTER = 87.1787
MEAN_ANOMALY   = 273.2216

EPHEMERIS_TYPE = 0
CLASSIFICATION_TYPE = U
NORAD_CAT_ID   = 13068
ELEMENT_SET_NO = 999
REV_AT_EPOCH   = 39225
BSTAR          = .16279E-3
MEAN_MOTION_DOT = .3679E-4
MEAN_MOTION_DDOT = 0

CCSDS_OMM_VERS = 2.0
CREATION_DATE  = 
ORIGINATOR     = 

OBJECT_NAME    = SL-3 R/B
OBJECT_ID      = 1982-039B
CENTER_NAME    = EARTH
REF_FRAME      = TEME
TIME_SYSTEM    = UTC
MEAN_ELEMENT_THEORY = SGP/SGP4

EPOCH          = 2025-12-20T03:06:34.251840
MEAN_MOTION    = 15.09563979
ECCENTRICITY   = .0029435
INCLINATION    = 81.1714
RA_OF_ASC_NODE = 307.5949
ARG_OF_PERICENTER = 227.1655
MEAN_ANOMALY   = 132.7097

EPHEMERIS_TYPE = 0
CLASSIFICATION_TYPE = U
NORAD_CAT_ID   = 13154
ELEMENT_SET_NO = 999
REV_AT_EPOCH   = 36963
BSTAR          = .11662E-3
MEAN_MOTION_DOT = .1914E-4
MEAN_MOTION_DDOT = 0

